CCSDS_OMM_VERS = 2.0
CREATION_DATE  = 
ORIGINATOR     = 

OBJECT_NAME    = STARLINK-35522
OBJECT_ID      = 2025-253Y
CENTER_NAME    = EARTH
REF_FRAME      = TEME
TIME_SYSTEM    = UTC
MEAN_ELEMENT_THEORY = SGP/SGP4

EPOCH          = 2025-11-20T20:00:03.000384
MEAN_MOTION    = 15.75009013
ECCENTRICITY   = .0001532
INCLINATION    = 42.9994
RA_OF_ASC_NODE = 113.5524
ARG_OF_PERICENTER = 272.8003
MEAN_ANOMALY   = 104.7723

EPHEMERIS_TYPE = 0
CLASSIFICATION_TYPE = U
NORAD_CAT_ID   = 66341
ELEMENT_SET_NO = 999
REV_AT_EPOCH   = 350
BSTAR          = .36414E-3
MEAN_MOTION_DOT = .55753E-3
MEAN_MOTION_DDOT = 0

CCSDS_OMM_VERS = 2.0
CREATION_DATE  = 
ORIGINATOR     = 

OBJECT_NAME    = STARLINK-35535
OBJECT_ID      = 2025-253Z
CENTER_NAME    = EARTH
REF_FRAME      = TEME
TIME_SYSTEM    = UTC
MEAN_ELEMENT_THEORY = SGP/SGP4

EPOCH          = 2025-11-20T20:00:03.000384
MEAN_MOTION    = 15.75031283
ECCENTRICITY   = .0001727
INCLINATION    = 43.0031
RA_OF_ASC_NODE = 113.5060
ARG_OF_PERICENTER = 273.6174
MEAN_ANOMALY   = 121.2075

EPHEMERIS_TYPE = 0
CLASSIFICATION_TYPE = U
NORAD_CAT_ID   = 66342
ELEMENT_SET_NO = 999
REV_AT_EPOCH   = 340
BSTAR          = .9498E-4
MEAN_MOTION_DOT = .14132E-3
MEAN_MOTION_DDOT = 0

CCSDS_OMM_VERS = 2.0
CREATION_DATE  = 
ORIGINATOR     = 

OBJECT_NAME    = STARLINK-35467
OBJECT_ID      = 2025-253AA
CENTER_NAME    = EARTH
REF_FRAME      = TEME
TIME_SYSTEM    = UTC
MEAN_ELEMENT_THEORY = SGP/SGP4

EPOCH          = 2025-11-20T20:00:03.000384
MEAN_MOTION    = 15.75028767
ECCENTRICITY   = .0001615
INCLINATION    = 43.0028
RA_OF_ASC_NODE = 113.5103
ARG_OF_PERICENTER = 271.7022
MEAN_ANOMALY   = 121.2077

EPHEMERIS_TYPE = 0
CLASSIFICATION_TYPE = U
NORAD_CAT_ID   = 66343
ELEMENT_SET_NO = 999
REV_AT_EPOCH   = 340
BSTAR          = .11809E-3
MEAN_MOTION_DOT = .17691E-3
MEAN_MOTION_DDOT = 0

CCSDS_OMM_VERS = 2.0
CREATION_DATE  = 
ORIGINATOR     = 

OBJECT_NAME    = STARLINK-35511
OBJECT_ID      = 2025-253AB
CENTER_NAME    = EARTH
REF_FRAME      = TEME
TIME_SYSTEM    = UTC
MEAN_ELEMENT_THEORY = SGP/SGP4

EPOCH          = 2025-11-20T20:00:03.000384
MEAN_MOTION    = 15.74998333
ECCENTRICITY   = .0001614
INCLINATION    = 42.9989
RA_OF_ASC_NODE = 113.4877
ARG_OF_PERICENTER = 272.8959
MEAN_ANOMALY   = 129.5980

EPHEMERIS_TYPE = 0
CLASSIFICATION_TYPE = U
NORAD_CAT_ID   = 66344
ELEMENT_SET_NO = 999
REV_AT_EPOCH   = 340
BSTAR          = .53928E-3
MEAN_MOTION_DOT = .83032E-3
MEAN_MOTION_DDOT = 0

CCSDS_OMM_VERS = 2.0
CREATION_DATE  = 
ORIGINATOR     = 

OBJECT_NAME    = STARLINK-35440
OBJECT_ID      = 2025-253AC
CENTER_NAME    = EARTH
REF_FRAME      = TEME
TIME_SYSTEM    = UTC
MEAN_ELEMENT_THEORY = SGP/SGP4

EPOCH          = 2025-11-20T20:00:03.000384
MEAN_MOTION    = 15.75030534
ECCENTRICITY   = .0001595
INCLINATION    = 42.9991
RA_OF_ASC_NODE = 113.4945
ARG_OF_PERICENTER = 270.5233
MEAN_ANOMALY   = 128.1355

EPHEMERIS_TYPE = 0
CLASSIFICATION_TYPE = U
NORAD_CAT_ID   = 66345
ELEMENT_SET_NO = 999
REV_AT_EPOCH   = 340
BSTAR          = .10866E-3
MEAN_MOTION_DOT = .16239E-3
MEAN_MOTION_DDOT = 0

CCSDS_OMM_VERS = 2.0
CREATION_DATE  = 
ORIGINATOR     = 

OBJECT_NAME    = STARLINK-35482
OBJECT_ID      = 2025-253AD
CENTER_NAME    = EARTH
REF_FRAME      = TEME
TIME_SYSTEM    = UTC
MEAN_ELEMENT_THEORY = SGP/SGP4

EPOCH          = 2025-11-20T20:00:03.000384
MEAN_MOTION    = 15.74993006
ECCENTRICITY   = .0001568
INCLINATION    = 42.9990
RA_OF_ASC_NODE = 113.4912
ARG_OF_PERICENTER = 276.9705
MEAN_ANOMALY   = 123.6117

EPHEMERIS_TYPE = 0
CLASSIFICATION_TYPE = U
NORAD_CAT_ID   = 66346
ELEMENT_SET_NO = 999
REV_AT_EPOCH   = 350
BSTAR          = .57683E-3
MEAN_MOTION_DOT = .88888E-3
MEAN_MOTION_DDOT = 0

CCSDS_OMM_VERS = 2.0
CREATION_DATE  = 
ORIGINATOR     = 

OBJECT_NAME    = STARLINK-35438
OBJECT_ID      = 2025-253AE
CENTER_NAME    = EARTH
REF_FRAME      = TEME
TIME_SYSTEM    = UTC
MEAN_ELEMENT_THEORY = SGP/SGP4

EPOCH          = 2025-11-20T20:00:03.000384
MEAN_MOTION    = 15.75014431
ECCENTRICITY   = .0001605
INCLINATION    = 42.9990
RA_OF_ASC_NODE = 113.4814
ARG_OF_PERICENTER = 272.3352
MEAN_ANOMALY   = 132.0751

EPHEMERIS_TYPE = 0
CLASSIFICATION_TYPE = U
NORAD_CAT_ID   = 66347
ELEMENT_SET_NO = 999
REV_AT_EPOCH   = 340
BSTAR          = .27376E-3
MEAN_MOTION_DOT = .41737E-3
MEAN_MOTION_DDOT = 0

CCSDS_OMM_VERS = 2.0
CREATION_DATE  = 
ORIGINATOR     = 

OBJECT_NAME    = STARLINK-35849
OBJECT_ID      = 2025-254A
CENTER_NAME    = EARTH
REF_FRAME      = TEME
TIME_SYSTEM    = UTC
MEAN_ELEMENT_THEORY = SGP/SGP4

EPOCH          = 2025-11-20T15:48:38.992896
MEAN_MOTION    = 15.77186273
ECCENTRICITY   = .0002241
INCLINATION    = 53.1575
RA_OF_ASC_NODE = 24.5640
ARG_OF_PERICENTER = 40.7358
MEAN_ANOMALY   = 319.3831

EPHEMERIS_TYPE = 0
CLASSIFICATION_TYPE = U
NORAD_CAT_ID   = 66348
ELEMENT_SET_NO = 999
REV_AT_EPOCH   = 336
BSTAR          = -.34223E-2
MEAN_MOTION_DOT = -.537797E-2
MEAN_MOTION_DDOT = 0

CCSDS_OMM_VERS = 2.0
CREATION_DATE  = 
ORIGINATOR     = 

OBJECT_NAME    = STARLINK-35848
OBJECT_ID      = 2025-254B
CENTER_NAME    = EARTH
REF_FRAME      = TEME
TIME_SYSTEM    = UTC
MEAN_ELEMENT_THEORY = SGP/SGP4

EPOCH          = 2025-11-20T15:48:08.915328
MEAN_MOTION    = 15.77237157
ECCENTRICITY   = .0001536
INCLINATION    = 53.1574
RA_OF_ASC_NODE = 24.5612
ARG_OF_PERICENTER = 136.1785
MEAN_ANOMALY   = 223.9359

EPHEMERIS_TYPE = 0
CLASSIFICATION_TYPE = U
NORAD_CAT_ID   = 66349
ELEMENT_SET_NO = 999
REV_AT_EPOCH   = 220
BSTAR          = -.2708E-2
MEAN_MOTION_DOT = -.431819E-2
MEAN_MOTION_DDOT = 0

CCSDS_OMM_VERS = 2.0
CREATION_DATE  = 
ORIGINATOR     = 

OBJECT_NAME    = STARLINK-35829
OBJECT_ID      = 2025-254C
CENTER_NAME    = EARTH
REF_FRAME      = TEME
TIME_SYSTEM    = UTC
MEAN_ELEMENT_THEORY = SGP/SGP4

EPOCH          = 2025-11-20T12:45:01.501632
MEAN_MOTION    = 15.77454258
ECCENTRICITY   = .0001354
INCLINATION    = 53.1572
RA_OF_ASC_NODE = 25.1902
ARG_OF_PERICENTER = 69.4749
MEAN_ANOMALY   = 290.6418

EPHEMERIS_TYPE = 0
CLASSIFICATION_TYPE = U
NORAD_CAT_ID   = 66350
ELEMENT_SET_NO = 999
REV_AT_EPOCH   = 218
BSTAR          = -.33863E-2
MEAN_MOTION_DOT = -.538382E-2
MEAN_MOTION_DDOT = 0

CCSDS_OMM_VERS = 2.0
CREATION_DATE  = 
ORIGINATOR     = 

OBJECT_NAME    = STARLINK-35828
OBJECT_ID      = 2025-254D
CENTER_NAME    = EARTH
REF_FRAME      = TEME
TIME_SYSTEM    = UTC
MEAN_ELEMENT_THEORY = SGP/SGP4

EPOCH          = 2025-11-20T18:49:35.395680
MEAN_MOTION    = 15.76628958
ECCENTRICITY   = .0001948
INCLINATION    = 53.1570
RA_OF_ASC_NODE = 23.9235
ARG_OF_PERICENTER = 50.7898
MEAN_ANOMALY   = 309.3295

EPHEMERIS_TYPE = 0
CLASSIFICATION_TYPE = U
NORAD_CAT_ID   = 66351
ELEMENT_SET_NO = 999
REV_AT_EPOCH   = 222
BSTAR          = -.30217E-2
MEAN_MOTION_DOT = -.467044E-2
MEAN_MOTION_DDOT = 0

CCSDS_OMM_VERS = 2.0
CREATION_DATE  = 
ORIGINATOR     = 

OBJECT_NAME    = STARLINK-35850
OBJECT_ID      = 2025-254E
CENTER_NAME    = EARTH
REF_FRAME      = TEME
TIME_SYSTEM    = UTC
MEAN_ELEMENT_THEORY = SGP/SGP4

EPOCH          = 2025-11-20T12:43:55.365024
MEAN_MOTION    = 15.77337109
ECCENTRICITY   = .0001227
INCLINATION    = 53.1569
RA_OF_ASC_NODE = 25.1843
ARG_OF_PERICENTER = 62.2497
MEAN_ANOMALY   = 297.8648

EPHEMERIS_TYPE = 0
CLASSIFICATION_TYPE = U
NORAD_CAT_ID   = 66352
ELEMENT_SET_NO = 999
REV_AT_EPOCH   = 218
BSTAR          = -.34043E-2
MEAN_MOTION_DOT = -.538394E-2
MEAN_MOTION_DDOT = 0

