STARLINK-35522          
1 66341U 25253Y   25324.83336806  .00055753  00000+0  36414-3 0  9995
2 66341  42.9994 113.5524 0001532 272.8003 104.7723 15.75009013  3506
STARLINK-35535          
1 66342U 25253Z   25324.83336806  .00014132  00000+0  94980-4 0  9995
2 66342  43.0031 113.5060 0001727 273.6174 121.2075 15.75031283  3407
STARLINK-35467          
1 66343U 25253AA  25324.83336806  .00017691  00000+0  11809-3 0  9997
2 66343  43.0028 113.5103 0001615 271.7022 121.2077 15.75028767  3404
STARLINK-35511          
1 66344U 25253AB  25324.83336806  .00083032  00000+0  53928-3 0  9998
2 66344  42.9989 113.4877 0001614 272.8959 129.5980 15.74998333  3404
STARLINK-35440          
1 66345U 25253AC  25324.83336806  .00016239  00000+0  10866-3 0  9998
2 66345  42.9991 113.4945 0001595 270.5233 128.1355 15.75030534  3404
STARLINK-35482          
1 66346U 25253AD  25324.83336806  .00088888  00000+0  57683-3 0  9996
2 66346  42.9990 113.4912 0001568 276.9705 123.6117 15.74993006  3500
STARLINK-35438          
1 66347U 25253AE  25324.83336806  .00041737  00000+0  27376-3 0  9995
2 66347  42.9990 113.4814 0001605 272.3352 132.0751 15.75014431  3406
STARLINK-35849          
1 66348U 25254A   25324.65878464 -.00537797  00000+0 -34223-2 0  9994
2 66348  53.1575  24.5640 0002241  40.7358 319.3831 15.77186273  3369
STARLINK-35848          
1 66349U 25254B   25324.65843652 -.00431819  00000+0 -27080-2 0  9997
2 66349  53.1574  24.5612 0001536 136.1785 223.9359 15.77237157  2203
STARLINK-35829          
1 66350U 25254C   25324.53126738 -.00538382  00000+0 -33863-2 0  9994
2 66350  53.1572  25.1902 0001354  69.4749 290.6418 15.77454258  2185
STARLINK-35828          
1 66351U 25254D   25324.78443745 -.00467044  00000+0 -30217-2 0  9998
2 66351  53.1570  23.9235 0001948  50.7898 309.3295 15.76628958  2221
STARLINK-35850          
1 66352U 25254E   25324.53050191 -.00538394  00000+0 -34043-2 0  9999
2 66352  53.1569  25.1843 0001227  62.2497 297.8648 15.77337109  2186
